[{"OBJECT_NAME":"STARLINK-31737","OBJECT_ID":"2024-074D","EPOCH":"2026-03-09T02:11:13.239744","MEAN_MOTION":15.27589441,"ECCENTRICITY":0.00010817,"INCLINATION":43.0045,"RA_OF_ASC_NODE":346.8346,"ARG_OF_PERICENTER":269.7064,"MEAN_ANOMALY":90.3664,"EPHEMERIS_TYPE":0,"CLASSIFICATION_TYPE":"U","NORAD_CAT_ID":59537,"ELEMENT_SET_NO":999,"REV_AT_EPOCH":10592,"BSTAR":5.4299306e-5,"MEAN_MOTION_DOT":1.233e-5,"MEAN_MOTION_DDOT":0},{"OBJECT_NAME":"YAOGAN-43 01D","OBJECT_ID":"2024-148D","EPOCH":"2026-03-09T10:27:16.254720","MEAN_MOTION":15.28369377,"ECCENTRICITY":0.00025569,"INCLINATION":35.001,"RA_OF_ASC_NODE":61.7102,"ARG_OF_PERICENTER":326.2473,"MEAN_ANOMALY":33.808,"EPHEMERIS_TYPE":0,"CLASSIFICATION_TYPE":"U","NORAD_CAT_ID":60461,"ELEMENT_SET_NO":999,"REV_AT_EPOCH":8700,"BSTAR":0.00037765912,"MEAN_MOTION_DOT":0.00010676,"MEAN_MOTION_DDOT":0}]
